SL-16 R/B               
1 22220U 92076B   23200.70634513  .00000002  00000+0  24736-4 0  9995
2 22220  71.0006  58.5267 0011046 130.8611 294.8662 14.16573560585631
COSMOS 2221             
1 22236U 92080A   23200.87211521  .00002007  00000+0  20565-3 0  9997
2 22236  82.5079 117.4900 0016006 171.1642 188.9861 14.89914171658022
SL-16 R/B               
1 22285U 92093B   23200.07369880 -.00000211  00000+0 -84054-4 0  9990
2 22285  71.0192 228.8250 0005738 315.6853  44.3810 14.15169396576993
COSMOS 2228             
1 22286U 92094A   23200.09970608  .00001860  00000+0  18864-3 0  9994
2 22286  82.5186  75.7666 0019071 297.7182  62.2102 14.90259087653139
SL-16 R/B               
1 22566U 93016B   23200.09741762 -.00000236  00000+0 -96978-4 0  9998
2 22566  71.0081  80.7124 0011007 339.3235  20.7441 14.15069595565716
COSMOS 2242             
1 22626U 93024A   23200.74188594  .00002165  00000+0  22138-3 0  9991
2 22626  82.5215 103.7993 0016874 296.9886  62.9609 14.90028795636854
SL-16 R/B               
1 22803U 93059B   23200.10229807  .00000114  00000+0  80703-4 0  9994
2 22803  70.9885 244.7985 0019210 243.3314 116.5842 14.16941664543142
ARIANE 40 R/B           
1 22830U 93061H   23200.69792591  .00000289  00000+0  12478-3 0  9992
2 22830  98.6151 266.5651 0009843 248.2417 111.7719 14.31806714556356
COSMOS 2278             
1 23087U 94023A   23199.93542161  .00000397  00000+0  23354-3 0  9991
2 23087  71.0536  32.9032 0007366  56.6924 303.4903 14.13969986508660
SL-16 R/B               
1 23088U 94023B   23200.68367829 -.00000198  00000+0 -77898-4 0  9997
2 23088  71.0003 295.0193 0005103 301.1497  58.9124 14.14771285510002
SL-16 R/B               
1 23343U 94074B   23200.73489858  .00000599  00000+0  90998-4 0  9999
2 23343  97.8376 248.8423 0008184 108.7960   7.2743 14.77509206545020
SL-16 R/B               
1 23405U 94077B   23200.12017705 -.00000125  00000+0 -39549-4 0  9994
2 23405  70.9804 221.3659 0003790 226.6229 133.4578 14.15317101480018
ERS-2                   
1 23560U 95021A   23200.91453949  .00045684  00000+0  96814-3 0  9991
2 23560  98.5211 170.4892 0001649 146.4121 213.7229 15.44954347514220
ARIANE 40+ R/B          
1 23561U 95021B   23200.78538416  .00000395  00000+0  14393-3 0  9992
2 23561  98.5723 263.5333 0007767 137.1981 334.6406 14.38474653480828
SL-16 R/B               
1 23705U 95058B   23200.99823606 -.00000149  00000+0 -52279-4 0  9998
2 23705  71.0228  43.0955 0011378 158.0538 202.1075 14.15241446431798
SL-16 R/B               
1 24298U 96051B   23200.74833352 -.00000025  00000+0  13004-4 0  9997
2 24298  70.8279  52.5716 0014391 128.6841 231.5568 14.12518656385795
ORBVIEW 2 (SEASTAR)     
1 24883U 97037A   23200.34635018  .00000403  00000+0  16033-3 0  9990
2 24883  98.7292 331.1453 0002846  44.0707 316.0704 14.34099353370446
SL-16 R/B               
1 25400U 98043G   23200.68841853  .00000089  00000+0  56127-4 0  9996
2 25400  98.7073 138.2792 0008888 297.1452  62.8821 14.25622429301841
SL-16 R/B               
1 25407U 98045B   23199.99156676  .00000116  00000+0  82882-4 0  9996
2 25407  71.0111  49.8818 0005847  44.8332 315.3262 14.15920323290808
ISS (ZARYA)             
1 25544U 98067A   23201.19134634  .00010982  00000+0  20095-3 0  9997
2 25544  51.6392 164.9972 0000314  45.9683 314.1332 15.49879208406919
CZ-4B R/B               
1 25732U 99025C   23200.13290855  .00000077  00000+0  58948-4 0  9995
2 25732  98.8014 244.1127 0036461 231.8765 189.4549 14.17836058251601
OKEAN-O                 
1 25860U 99039A   23200.11909881  .00000872  00000+0  12943-3 0  9993
2 25860  98.0866 247.2787 0001175 115.4740 244.6591 14.77589489291907
SL-16 R/B               
1 25861U 99039B   23200.11558063  .00000741  00000+0  10653-3 0  9997
2 25861  98.1361 237.8239 0016427 133.2710 226.9875 14.79397620294263
DELTA 2 R/B             
1 25876U 99041E   23200.12563577  .00003420  00000+0  60958-3 0  9993
2 25876  51.7607 178.6038 0524525  33.0512 330.2077 14.06488038227034
HELIOS 1B               
1 25977U 99064A   23200.18528358  .00000819  00000+0  10663-3 0  9991
2 25977  98.2898  54.9661 0000950  28.1820 331.9444 14.83466866273385
TERRA                   
1 25994U 99068A   23201.17988918  .00000622  00000+0  14109-3 0  9997
2 25994  98.0931 268.7488 0001336  23.5403  61.4560 14.59297796254590
SL-16 R/B               
1 26070U 00006B   23199.75758396  .00000154  00000+0  10278-3 0  9995
2 26070  71.0034 326.3398 0017841 216.1670 143.8247 14.15551897211975
TITAN 4B R/B            
1 26474U 00047B   23201.11122317  .00003110  00000+0  25919-3 0  9993
2 26474  67.9914 207.7575 0049363  31.8325 328.5785 14.99091635248077
ENVISAT                 
1 27386U 02009A   23200.97498498  .00000303  00000+0  11305-3 0  9990
2 27386  98.2324 169.6343 0001388  87.2129 313.9156 14.38379497120676
IDEFIX & ARIANE 42P R/B 
1 27422U 02021B   23200.79363155  .00000341  00000+0  14950-3 0  9997
2 27422  98.4913 140.9256 0012783 141.1430 219.0673 14.29728147104328
AQUA                    
1 27424U 02022A   23201.14700444  .00001112  00000+0  25130-3 0  9995
2 27424  98.2880 145.4511 0002170  77.4660 340.5277 14.58176423128164
CZ-4B R/B               
1 27432U 02024C   23201.08259887  .00000059  00000+0  54127-4 0  9997
2 27432  99.0209 235.9766 0049527 232.7550 181.6320 14.14223961 93105
MIDORI II (ADEOS-II)    
1 27597U 02056A   23200.68913137  .00000381  00000+0  17142-3 0  9997
2 27597  98.6492 144.6593 0000611  35.0237 325.0984 14.27946996 72636
H-2A R/B                
1 27601U 02056E   23200.79203865  .00000331  00000+0  13332-3 0  9997
2 27601  98.1929 190.2264 0072220 155.0017 262.6601 14.32400165 76037
CZ-4B R/B               
1 28059U 03049C   23200.72466186  .00000486  00000+0  12745-3 0  9996
2 28059  98.5617 149.8317 0048462 294.7507  64.8649 14.53227157 46489
CZ-2C R/B               
1 28222U 04012C   23200.71275958  .00007349  00000+0  35629-3 0  9994
2 28222  97.8018 196.2122 0041682 126.2528 234.2568 15.18059229 56408
SL-16 R/B               
1 28353U 04021B   23201.12590372 -.00000213  00000+0 -86327-4 0  9992
2 28353  71.0008  94.1742 0003221  42.6252 317.5120 14.14335315986580
CZ-4B R/B               
1 28415U 04035C   23200.81453801  .00004421  00000+0  25919-3 0  9998
2 28415  97.4661 237.1653 0048624  95.9452 264.7323 15.11275485 33541
CZ-2C R/B               
1 28480U 04046B   23200.42523808  .00000247  00000+0  10765-3 0  9999
2 28480  98.1129 162.9797 0142293 126.4105 235.0297 14.26053674971020
ARIANE 5 R/B            
1 28499U 04049H   23200.38880911  .00001238  00000+0  15554-3 0  9990
2 28499  98.1401 326.9148 0089000 231.5460 196.0837 14.81353824  2867
CZ-2D R/B               
1 28738U 05024B   23200.74639629  .00007048  00000+0  34271-3 0  9990
2 28738  97.3536 201.3787 0008888 228.2520 131.7955 15.18683125991958
SUZAKU (ASTRO-EII)      
1 28773U 05025A   23200.35740033  .00015317  00000+0  51842-3 0  9990
2 28773  31.3857 213.6500 0002872 102.6552 257.4420 15.29389283995628
ALOS (DAICHI)           
1 28931U 06002A   23200.91228681  .00001444  00000+0  28260-3 0  9998
2 28931  97.9895 157.4571 0002214 102.6409 257.5041 14.64282792932556
H-2A R/B                
1 28932U 06002B   23201.15497168  .00004822  00000+0  40231-3 0  9999
2 28932  98.2412 269.8183 0080629 223.0872 136.4019 14.96583692949557
RESURS-DK 1             
1 29228U 06021A   23201.01162942  .00002358  00000+0  17271-3 0  9993
2 29228  69.9339 194.6680 0005067 206.6894 153.4008 15.05012772942186
GENESIS 1               
1 29252U 06029A   23200.09331370  .00008988  00000+0  33909-3 0  9999
2 29252  64.5175 203.0822 0020838 211.2471 148.7419 15.27405929939465
CZ-4B R/B               
1 29507U 06046C   23200.11267191  .00004360  00000+0  31142-3 0  9990
2 29507  97.6840 233.1504 0042506 334.2027  25.7078 15.04305489914490
CZ-2C R/B               
1 31114U 07010B   23200.40039596  .00000137  00000+0  82677-4 0  9995
2 31114  98.2841 351.9384 0058803 219.7206 139.9658 14.19589979842881
COSMO-SKYMED 1          
1 31598U 07023A   23201.17409637  .00000689  00000+0  93077-4 0  9995
2 31598  97.8890  24.1698 0001391  91.3465 268.7907 14.82162018871874
GENESIS 2               
1 31789U 07028A   23200.40982232  .00008635  00000+0  32663-3 0  9996
2 31789  64.4923 246.3307 0056143 257.5866 101.8975 15.26091136886389
COSMOS 2428             
1 31792U 07029A   23201.03718236  .00000009  00000+0  30791-4 0  9990
2 31792  70.9295  65.8342 0007019 187.5707 172.5309 14.12543872828075
SL-16 R/B               
1 31793U 07029B   23200.75042878  .00000275  00000+0  16819-3 0  9990
2 31793  70.9755  38.1864 0001902 279.6152 154.2976 14.14540054829137
KORONAS-FOTON           
1 33504U 09003A   23199.52087491  .00007029  00000+0  31612-3 0  9990
2 33504  82.4390 179.9076 0016262 340.8923  19.1700 15.20831014798207
CZ-2C R/B               
1 37731U 11030B   23200.70982983  .00001197  00000+0  17609-3 0  9992
2 37731  97.7153 173.1131 0056451 240.7838 170.0293 14.76164895647634
H-2A R/B                
1 38341U 12025E   23200.11959975  .00001880  00000+0  21580-3 0  9997
2 38341  98.4517  85.9018 0052439 207.7490 152.0924 14.86250976604616
CUSAT 2 & FALCON 9 R/B  
1 39271U 13055G   23200.23480201  .00039798  00000+0  69275-3 0  9990
2 39271  80.9496 111.0499 0429309 317.5944  39.2811 14.88078672515203
SHIJIAN-16 (SJ-16)      
1 39358U 13057A   23200.82768322  .00001063  00000+0  12062-3 0  9992
2 39358  74.9719 202.7037 0019990 282.4188  77.4760 14.87266584528039
CZ-2C R/B               
1 39364U 13059B   23200.10351891  .00023789  00000+0  50446-3 0  9998
2 39364  97.1012 246.3739 0030412 343.3983  16.6267 15.44555298541156
SL-4 R/B                
1 39679U 14021B   23200.35797180  .00005812  00000+0  25693-3 0  9992
2 39679  51.6121 261.9622 0151792 262.8786  95.4906 15.13412373509438
